NORAD_CAT_ID,OBJECT_NAME,OBJECT_TYPE,EPOCH,MEAN_MOTION,ECCENTRICITY,INCLINATION,RA_OF_ASC_NODE,ARG_OF_PERICENTER,MEAN_ANOMALY,BSTAR,MEAN_MOTION_DOT,MEAN_MOTION_DDOT,TLE_LINE0,TLE_LINE1,TLE_LINE2,SEMIMAJOR_AXIS,PERIOD,APOGEE,PERIGEE,DECAYED
53854.0,STARLINK-4800,PAYLOAD,2024-03-17 20:08:22,15.08850161,0.0001253,53.2172,284.8651,113.1406,246.9718,4.968e-05,5.03e-06,0.0,0 STARLINK-4800,1 53854U 22114AN  24077.83914852  .00000503  00000-0  49680-4 0  9994,2 53854  53.2172 284.8651 0001253 113.1406 246.9718 15.08850161 83595,6917.849,95.437,540.581,538.848,0.0
53854.0,STARLINK-4800,PAYLOAD,2024-03-18 13:37:37,15.08838973,0.0001455,53.2166,281.5954,87.3862,272.7297,0.00014149,1.965e-05,0.0,0 STARLINK-4800,1 53854U 22114AN  24078.56779549  .00001965  00000-0  14149-3 0  9991,2 53854  53.2166 281.5954 0001455  87.3862 272.7297 15.08838973 83709,6917.884,95.438,540.755,538.742,0.0
53854.0,STARLINK-4800,PAYLOAD,2024-03-19 19:49:57,15.08843069,0.0001471,53.2165,275.946,101.4482,258.6675,8.4657e-05,1.06e-05,0.0,0 STARLINK-4800,1 53854U 22114AN  24079.82635421  .00001060  00000-0  84657-4 0  9999,2 53854  53.2165 275.9460 0001471 101.4482 258.6675 15.08843069 83896,6917.871,95.437,540.754,538.718,0.0
53854.0,STARLINK-4800,PAYLOAD,2024-03-20 18:05:21,15.0883537,0.0001636,53.217,271.7838,107.8041,252.3129,7.3885e-05,8.88e-06,0.0,0 STARLINK-4800,1 53854U 22114AN  24080.75372170  .00000888  00000-0  73885-4 0  9990,2 53854  53.2170 271.7838 0001636 107.8041 252.3129 15.08835370 84037,6917.895,95.438,540.891,538.628,0.0
53854.0,STARLINK-4800,PAYLOAD,2024-03-21 11:34:36,15.08852656,0.0001773,53.2172,268.5168,111.3983,248.7198,-0.00025967,-4.42e-05,0.0,0 STARLINK-4800,1 53854U 22114AN  24081.48236552 -.00004420  00000-0 -25967-3 0  9999,2 53854  53.2172 268.5168 0001773 111.3983 248.7198 15.08852656 84688,6917.842,95.437,540.933,538.48,0.0
53854.0,STARLINK-4800,PAYLOAD,2024-03-21 19:31:32,15.08827531,0.0001519,53.2174,267.0286,96.487,263.6295,-4.0867e-06,-3.53e-06,0.0,0 STARLINK-4800,1 53854U 22114AN  24081.81357560 -.00000353  00000-0 -40867-5 0  9998,2 53854  53.2174 267.0286 0001519  96.4870 263.6295 15.08827531 84195,6917.919,95.438,540.834,538.733,0.0
53854.0,STARLINK-4800,PAYLOAD,2024-03-22 20:57:41,15.08862433,0.0001437,53.2163,262.2701,90.9056,269.2101,0.00045431,6.954e-05,0.0,0 STARLINK-4800,1 53854U 22114AN  24082.87339339  .00006954  00000-0  45431-3 0  9990,2 53854  53.2163 262.2701 0001437  90.9056 269.2101 15.08862433 84352,6917.812,95.436,540.671,538.683,0.0
53854.0,STARLINK-4800,PAYLOAD,2024-03-23 20:48:28,15.08852551,0.000138,53.2151,257.8054,80.4273,279.6875,0.00022078,3.229e-05,0.0,0 STARLINK-4800,1 53854U 22114AN  24083.86699901  .00003229  00000-0  22078-3 0  9998,2 53854  53.2151 257.8054 0001380  80.4273 279.6875 15.08852551 84502,6917.842,95.437,540.662,538.752,0.0
53854.0,STARLINK-4800,PAYLOAD,2024-03-24 04:45:24,15.08841737,0.0001444,53.2151,256.3199,81.2817,278.8339,0.00013845,1.916e-05,0.0,0 STARLINK-4800,1 53854U 22114AN  24084.19820104  .00001916  00000-0  13845-3 0  9999,2 53854  53.2151 256.3199 0001444  81.2817 278.8339 15.08841737 84555,6917.875,95.437,540.739,538.741,0.0
53854.0,STARLINK-4800,PAYLOAD,2024-03-24 11:06:56,15.08835497,0.0001487,53.2149,255.1286,89.7891,270.3272,5.1372e-05,5.3e-06,0.0,0 STARLINK-4800,1 53854U 22114AN  24084.46315881  .00000530  00000-0  51372-4 0  9999,2 53854  53.2149 255.1286 0001487  89.7891 270.3272 15.08835497 85132,6917.894,95.438,540.788,538.73,0.0
53854.0,STARLINK-4800,PAYLOAD,2024-03-24 19:03:52,15.08861431,0.000128,53.2138,253.6437,85.7446,274.3692,0.0012671,0.00019947,0.0,0 STARLINK-4800,1 53854U 22114AN  24084.79435696  .00019947  00000-0  12671-2 0  9991,2 53854  53.2138 253.6437 0001280  85.7446 274.3692 15.08861431 84646,6917.815,95.436,540.565,538.794,0.0
53854.0,STARLINK-4800,PAYLOAD,2024-03-25 04:36:11,15.08846405,0.0001425,53.2137,251.859,93.3623,266.7532,0.00069952,0.00010864,0.0,0 STARLINK-4800,1 53854U 22114AN  24085.19179854  .00010864  00000-0  69952-3 0  9991,2 53854  53.2137 251.8590 0001425  93.3623 266.7532 15.08846405 84707,6917.861,95.437,540.712,538.74,0.0
53854.0,STARLINK-4800,PAYLOAD,2024-03-25 10:57:44,15.08839281,0.0001486,53.2156,250.6682,97.6499,262.4662,4.5108e-05,4.3e-06,0.0,0 STARLINK-4800,1 53854U 22114AN  24085.45675967  .00000430  00000-0  45108-4 0  9992,2 53854  53.2156 250.6682 0001486  97.6499 262.4662 15.08839281 84747,6917.883,95.438,540.776,538.72,0.0
53854.0,STARLINK-4800,PAYLOAD,2024-03-25 17:19:16,15.08852983,0.0001706,53.2159,249.4786,100.5258,259.5927,0.00039899,6.07e-05,0.0,0 STARLINK-4800,1 53854U 22114AN  24085.72171739  .00006070  00000-0  39899-3 0  9995,2 53854  53.2159 249.4786 0001706 100.5258 259.5927 15.08852983 84782,6917.841,95.437,540.886,538.526,0.0
53854.0,STARLINK-4800,PAYLOAD,2024-03-26 10:48:31,15.08833803,0.0001492,53.2144,246.2098,83.504,276.6122,0.00018698,2.689e-05,0.0,0 STARLINK-4800,1 53854U 22114AN  24086.45036743  .00002689  00000-0  18698-3 0  9997,2 53854  53.2144 246.2098 0001492  83.5040 276.6122 15.08833803 84897,6917.899,95.438,540.796,538.732,0.0
53854.0,STARLINK-4800,PAYLOAD,2024-03-26 13:59:18,15.08829102,0.0001276,53.2141,245.6136,78.3379,281.7756,7.2548e-06,-1.72e-06,0.0,0 STARLINK-4800,1 53854U 22114AN  24086.58285008 -.00000172  00000-0  72548-5 0  9993,2 53854  53.2141 245.6136 0001276  78.3379 281.7756 15.08829102 85457,6917.914,95.438,540.661,538.896,0.0
53854.0,STARLINK-4800,PAYLOAD,2024-03-26 17:10:04,15.08830183,0.0001383,53.2152,245.0193,97.1672,262.9477,5.3259e-05,5.6e-06,0.0,0 STARLINK-4800,1 53854U 22114AN  24086.71533018  .00000560  00000-0  53259-4 0  9992,2 53854  53.2152 245.0193 0001383  97.1672 262.9477 15.08830183 85474,6917.91,95.438,540.732,538.819,0.0
53854.0,STARLINK-4800,PAYLOAD,2024-03-27 13:50:05,15.08837353,0.0001396,53.216,241.1534,100.6333,259.4817,0.00046834,7.173e-05,0.0,0 STARLINK-4800,1 53854U 22114AN  24087.57645609  .00007173  00000-0  46834-3 0  9994,2 53854  53.2160 241.1534 0001396 100.6333 259.4817 15.08837353 85067,6917.888,95.438,540.719,538.788,0.0
53854.0,STARLINK-4800,PAYLOAD,2024-03-27 17:00:52,15.08843276,0.0001344,53.2162,240.5622,97.0583,263.0562,0.0006835,0.00010608,0.0,0 STARLINK-4800,1 53854U 22114AN  24087.70893567  .00010608  00000-0  68350-3 0  9991,2 53854  53.2162 240.5622 0001344  97.0583 263.0562 15.08843276 85620,6917.87,95.437,540.665,538.806,0.0
53854.0,STARLINK-4800,PAYLOAD,2024-03-28 10:30:06,15.08845141,0.0001599,53.2187,237.2926,100.3451,259.7721,0.00030612,4.588e-05,0.0,0 STARLINK-4800,1 53854U 22114AN  24088.43757329  .00004588  00000-0  30612-3 0  9997,2 53854  53.2187 237.2926 0001599 100.3451 259.7721 15.08845141 85735,6917.865,95.437,540.836,538.624,0.0
53854.0,STARLINK-4800,PAYLOAD,2024-03-28 16:51:38,15.0885668,0.0001851,53.2164,236.1017,96.8353,263.285,0.00049373,7.582e-05,0.0,0 STARLINK-4800,1 53854U 22114AN  24088.70252962  .00007582  00000-0  49373-3 0  9991,2 53854  53.2164 236.1017 0001851  96.8353 263.2850 15.08856680 85238,6917.829,95.436,540.975,538.414,0.0
53854.0,STARLINK-4800,PAYLOAD,2024-03-29 08:45:29,15.08846472,0.0001155,53.2165,233.1252,71.0832,289.0285,0.00013449,1.854e-05,0.0,0 STARLINK-4800,1 53854U 22114AN  24089.36492908  .00001854  00000-0  13449-3 0  9991,2 53854  53.2165 233.1252 0001155  71.0832 289.0285 15.08846472 85338,6917.861,95.437,540.525,538.927,0.0
53854.0,STARLINK-4800,PAYLOAD,2024-03-30 13:22:26,15.08833973,0.0001726,53.2148,227.7751,86.9655,273.1535,-1.5924e-05,-5.41e-06,0.0,0 STARLINK-4800,1 53854U 22114AN  24090.55724829 -.00000541  00000-0 -15924-4 0  9999,2 53854  53.2148 227.7751 0001726  86.9655 273.1535 15.08833973 85518,6917.899,95.438,540.958,538.57,0.0
53854.0,STARLINK-4800,PAYLOAD,2024-03-31 14:48:35,15.08867723,0.0001328,53.2139,223.0171,74.3512,285.7627,-0.00081858,-0.00013302,0.0,0 STARLINK-4800,1 53854U 22114AN  24091.61707403 -.00013302  00000-0 -81858-3 0  9993,2 53854  53.2139 223.0171 0001328  74.3512 285.7627 15.08867723 86213,6917.796,95.436,540.579,538.742,0.0
53854.0,STARLINK-4800,PAYLOAD,2024-03-31 16:23:59,15.08845553,0.0001758,53.2162,222.7193,81.8624,278.2567,0.00015005,2.101e-05,0.0,0 STARLINK-4800,1 53854U 22114AN  24091.68333013  .00002101  00000-0  15005-3 0  9996,2 53854  53.2162 222.7193 0001758  81.8624 278.2567 15.08845553 85680,6917.863,95.437,540.945,538.512,0.0
53854.0,STARLINK-4800,PAYLOAD,2024-04-01 01:56:18,15.08838331,0.0001586,53.2171,220.9364,80.3917,279.7255,0.00017487,2.496e-05,0.0,0 STARLINK-4800,1 53854U 22114AN  24092.08077377  .00002496  00000-0  17487-3 0  9992,2 53854  53.2171 220.9364 0001586  80.3917 279.7255 15.08838331 85741,6917.885,95.438,540.848,538.653,0.0
53854.0,STARLINK-4800,PAYLOAD,2024-04-01 14:39:24,15.08839547,0.0001138,53.2172,218.557,80.7072,279.4049,0.00017011,2.42e-05,0.0,0 STARLINK-4800,1 53854U 22114AN  24092.61069481  .00002420  00000-0  17011-3 0  9998,2 53854  53.2172 218.5570 0001138  80.7072 279.4049 15.08839547 86360,6917.882,95.438,540.534,538.96,0.0
53854.0,STARLINK-4800,PAYLOAD,2024-04-02 11:19:24,15.08841141,0.0001482,53.2153,214.6916,80.2627,279.8532,0.00014257,1.982e-05,0.0,0 STARLINK-4800,1 53854U 22114AN  24093.47181538  .00001982  00000-0  14257-3 0  9992,2 53854  53.2153 214.6916 0001482  80.2627 279.8532 15.08841141 85951,6917.877,95.437,540.767,538.717,0.0
53854.0,STARLINK-4800,PAYLOAD,2024-04-02 14:30:10,15.08843488,0.0001346,53.2158,214.0968,85.0945,275.02,0.00018083,2.591e-05,0.0,0 STARLINK-4800,1 53854U 22114AN  24093.60429370  .00002591  00000-0  18083-3 0  9994,2 53854  53.2158 214.0968 0001346  85.0945 275.0200 15.08843488 86511,6917.87,95.437,540.666,538.804,0.0
53854.0,STARLINK-4800,PAYLOAD,2024-04-02 17:40:56,15.08848572,0.000142,53.2163,213.4993,89.8205,270.295,0.00012861,1.76e-05,0.0,0 STARLINK-4800,1 53854U 22114AN  24093.73677032  .00001760  00000-0  12861-3 0  9993,2 53854  53.2163 213.4993 0001420  89.8205 270.2950 15.08848572 86532,6917.854,95.437,540.702,538.737,0.0
